[{"OBJECT_NAME":"STARLINK-36980","OBJECT_ID":"2026-049E","EPOCH":"2026-03-24T06:00:02.000160","MEAN_MOTION":15.8446551,"ECCENTRICITY":0.0001618,"INCLINATION":97.279,"RA_OF_ASC_NODE":103.1748,"ARG_OF_PERICENTER":89.4276,"MEAN_ANOMALY":63.2679,"EPHEMERIS_TYPE":0,"CLASSIFICATION_TYPE":"U","NORAD_CAT_ID":68146,"ELEMENT_SET_NO":999,"REV_AT_EPOCH":296,"BSTAR":-0.0099374717,"MEAN_MOTION_DOT":-0.01966381,"MEAN_MOTION_DDOT":0},{"OBJECT_NAME":"STARLINK-37055","OBJECT_ID":"2026-049F","EPOCH":"2026-03-24T06:00:02.000160","MEAN_MOTION":15.84612658,"ECCENTRICITY":0.0001476,"INCLINATION":97.2796,"RA_OF_ASC_NODE":103.1705,"ARG_OF_PERICENTER":85.3813,"MEAN_ANOMALY":58.0079,"EPHEMERIS_TYPE":0,"CLASSIFICATION_TYPE":"U","NORAD_CAT_ID":68147,"ELEMENT_SET_NO":999,"REV_AT_EPOCH":296,"BSTAR":-0.0093656441,"MEAN_MOTION_DOT":-0.01878753,"MEAN_MOTION_DDOT":0},{"OBJECT_NAME":"STARLINK-36981","OBJECT_ID":"2026-049G","EPOCH":"2026-03-24T06:00:02.000160","MEAN_MOTION":15.8466136,"ECCENTRICITY":0.00015105,"INCLINATION":97.2786,"RA_OF_ASC_NODE":103.1778,"ARG_OF_PERICENTER":79.0921,"MEAN_ANOMALY":81.5911,"EPHEMERIS_TYPE":0,"CLASSIFICATION_TYPE":"U","NORAD_CAT_ID":68148,"ELEMENT_SET_NO":999,"REV_AT_EPOCH":296,"BSTAR":-0.0099558777,"MEAN_MOTION_DOT":-0.01985586,"MEAN_MOTION_DDOT":0},{"OBJECT_NAME":"STARLINK-36992","OBJECT_ID":"2026-049H","EPOCH":"2026-03-24T06:00:02.000160","MEAN_MOTION":15.84805121,"ECCENTRICITY":0.00015419,"INCLINATION":97.2784,"RA_OF_ASC_NODE":103.1794,"ARG_OF_PERICENTER":89.3638,"MEAN_ANOMALY":75.1203,"EPHEMERIS_TYPE":0,"CLASSIFICATION_TYPE":"U","NORAD_CAT_ID":68149,"ELEMENT_SET_NO":999,"REV_AT_EPOCH":296,"BSTAR":-0.009897843,"MEAN_MOTION_DOT":-0.01987488,"MEAN_MOTION_DDOT":0},{"OBJECT_NAME":"STARLINK-37060","OBJECT_ID":"2026-049J","EPOCH":"2026-03-24T06:00:02.000160","MEAN_MOTION":15.84943154,"ECCENTRICITY":0.00015742,"INCLINATION":97.2782,"RA_OF_ASC_NODE":103.1813,"ARG_OF_PERICENTER":80.9603,"MEAN_ANOMALY":87.3229,"EPHEMERIS_TYPE":0,"CLASSIFICATION_TYPE":"U","NORAD_CAT_ID":68150,"ELEMENT_SET_NO":999,"REV_AT_EPOCH":296,"BSTAR":-0.0098235731,"MEAN_MOTION_DOT":-0.01986032,"MEAN_MOTION_DDOT":0},{"OBJECT_NAME":"STARLINK-37073","OBJECT_ID":"2026-049K","EPOCH":"2026-03-24T06:00:02.000160","MEAN_MOTION":15.85029677,"ECCENTRICITY":0.00015308,"INCLINATION":97.278,"RA_OF_ASC_NODE":103.1824,"ARG_OF_PERICENTER":82.263,"MEAN_ANOMALY":90.0318,"EPHEMERIS_TYPE":0,"CLASSIFICATION_TYPE":"U","NORAD_CAT_ID":68151,"ELEMENT_SET_NO":999,"REV_AT_EPOCH":296,"BSTAR":-0.0098458196,"MEAN_MOTION_DOT":-0.01997101,"MEAN_MOTION_DDOT":0},{"OBJECT_NAME":"STARLINK-37049","OBJECT_ID":"2026-049L","EPOCH":"2026-03-24T06:00:02.000160","MEAN_MOTION":15.85084609,"ECCENTRICITY":0.00015154,"INCLINATION":97.2776,"RA_OF_ASC_NODE":103.1845,"ARG_OF_PERICENTER":93.7556,"MEAN_ANOMALY":82.6708,"EPHEMERIS_TYPE":0,"CLASSIFICATION_TYPE":"U","NORAD_CAT_ID":68152,"ELEMENT_SET_NO":999,"REV_AT_EPOCH":296,"BSTAR":-0.0098986157,"MEAN_MOTION_DOT":-0.02010965,"MEAN_MOTION_DDOT":0},{"OBJECT_NAME":"STARLINK-37072","OBJECT_ID":"2026-049M","EPOCH":"2026-03-24T06:00:02.000160","MEAN_MOTION":15.85186595,"ECCENTRICITY":0.00017036,"INCLINATION":97.2771,"RA_OF_ASC_NODE":103.1858,"ARG_OF_PERICENTER":86.1786,"MEAN_ANOMALY":94.1557,"EPHEMERIS_TYPE":0,"CLASSIFICATION_TYPE":"U","NORAD_CAT_ID":68153,"ELEMENT_SET_NO":999,"REV_AT_EPOCH":296,"BSTAR":-0.0098383544,"MEAN_MOTION_DOT":-0.02009155,"MEAN_MOTION_DDOT":0},{"OBJECT_NAME":"STARLINK-36241","OBJECT_ID":"2026-049N","EPOCH":"2026-03-24T06:00:02.000160","MEAN_MOTION":15.85341436,"ECCENTRICITY":0.000162,"INCLINATION":97.2771,"RA_OF_ASC_NODE":103.1888,"ARG_OF_PERICENTER":91.1315,"MEAN_ANOMALY":97.2417,"EPHEMERIS_TYPE":0,"CLASSIFICATION_TYPE":"U","NORAD_CAT_ID":68154,"ELEMENT_SET_NO":999,"REV_AT_EPOCH":297,"BSTAR":-0.009842975,"MEAN_MOTION_DOT":-0.02022961,"MEAN_MOTION_DDOT":0},{"OBJECT_NAME":"STARLINK-37048","OBJECT_ID":"2026-049P","EPOCH":"2026-03-24T06:00:02.000160","MEAN_MOTION":15.85528497,"ECCENTRICITY":0.00017312,"INCLINATION":97.2761,"RA_OF_ASC_NODE":103.1922,"ARG_OF_PERICENTER":80.1006,"MEAN_ANOMALY":116.1625,"EPHEMERIS_TYPE":0,"CLASSIFICATION_TYPE":"U","NORAD_CAT_ID":68155,"ELEMENT_SET_NO":999,"REV_AT_EPOCH":296,"BSTAR":-0.0097922925,"MEAN_MOTION_DOT":-0.02029966,"MEAN_MOTION_DDOT":0},{"OBJECT_NAME":"STARLINK-36313","OBJECT_ID":"2026-049Q","EPOCH":"2026-03-24T06:00:02.000160","MEAN_MOTION":15.85454216,"ECCENTRICITY":0.00016348,"INCLINATION":97.2765,"RA_OF_ASC_NODE":103.1901,"ARG_OF_PERICENTER":81.2664,"MEAN_ANOMALY":110.9607,"EPHEMERIS_TYPE":0,"CLASSIFICATION_TYPE":"U","NORAD_CAT_ID":68156,"ELEMENT_SET_NO":999,"REV_AT_EPOCH":297,"BSTAR":-0.0097788086,"MEAN_MOTION_DOT":-0.02021121,"MEAN_MOTION_DDOT":0},{"OBJECT_NAME":"STARLINK-37064","OBJECT_ID":"2026-049R","EPOCH":"2026-03-24T06:00:02.000160","MEAN_MOTION":15.85238336,"ECCENTRICITY":0.00014476,"INCLINATION":97.2766,"RA_OF_ASC_NODE":103.1865,"ARG_OF_PERICENTER":87.0134,"MEAN_ANOMALY":97.4569,"EPHEMERIS_TYPE":0,"CLASSIFICATION_TYPE":"U","NORAD_CAT_ID":68157,"ELEMENT_SET_NO":999,"REV_AT_EPOCH":296,"BSTAR":-0.0098893547,"MEAN_MOTION_DOT":-0.02022232,"MEAN_MOTION_DDOT":0},{"OBJECT_NAME":"STARLINK-37069","OBJECT_ID":"2026-049S","EPOCH":"2026-03-24T06:00:02.000160","MEAN_MOTION":15.85812514,"ECCENTRICITY":0.00015925,"INCLINATION":97.276,"RA_OF_ASC_NODE":103.1954,"ARG_OF_PERICENTER":84.452,"MEAN_ANOMALY":119.2317,"EPHEMERIS_TYPE":0,"CLASSIFICATION_TYPE":"U","NORAD_CAT_ID":68158,"ELEMENT_SET_NO":999,"REV_AT_EPOCH":296,"BSTAR":-0.0096652796,"MEAN_MOTION_DOT":-0.02031164,"MEAN_MOTION_DDOT":0},{"OBJECT_NAME":"STARLINK-37053","OBJECT_ID":"2026-049T","EPOCH":"2026-03-24T06:00:02.000160","MEAN_MOTION":15.85910684,"ECCENTRICITY":0.00015124,"INCLINATION":97.2759,"RA_OF_ASC_NODE":103.1968,"ARG_OF_PERICENTER":91.3879,"MEAN_ANOMALY":116.186,"EPHEMERIS_TYPE":0,"CLASSIFICATION_TYPE":"U","NORAD_CAT_ID":68159,"ELEMENT_SET_NO":999,"REV_AT_EPOCH":296,"BSTAR":-0.0096227704,"MEAN_MOTION_DOT":-0.02031741,"MEAN_MOTION_DDOT":0},{"OBJECT_NAME":"STARLINK-36306","OBJECT_ID":"2026-049U","EPOCH":"2026-03-24T06:00:02.000160","MEAN_MOTION":15.86028518,"ECCENTRICITY":0.00015592,"INCLINATION":97.2752,"RA_OF_ASC_NODE":103.1979,"ARG_OF_PERICENTER":96.6918,"MEAN_ANOMALY":114.6876,"EPHEMERIS_TYPE":0,"CLASSIFICATION_TYPE":"U","NORAD_CAT_ID":68160,"ELEMENT_SET_NO":999,"REV_AT_EPOCH":297,"BSTAR":-0.0095846005,"MEAN_MOTION_DOT":-0.02034927,"MEAN_MOTION_DDOT":0},{"OBJECT_NAME":"STARLINK-37057","OBJECT_ID":"2026-049V","EPOCH":"2026-03-24T06:00:02.000160","MEAN_MOTION":15.85662946,"ECCENTRICITY":0.00017381,"INCLINATION":97.2758,"RA_OF_ASC_NODE":103.1935,"ARG_OF_PERICENTER":90.9738,"MEAN_ANOMALY":109.0567,"EPHEMERIS_TYPE":0,"CLASSIFICATION_TYPE":"U","NORAD_CAT_ID":68161,"ELEMENT_SET_NO":999,"REV_AT_EPOCH":296,"BSTAR":-0.0097600969,"MEAN_MOTION_DOT":-0.02035679,"MEAN_MOTION_DDOT":0}]
