STARLINK-36980          
1 68146U 26049E   26083.25002315 -.01966381  00000+0 -99375-2 0  9993
2 68146  97.2790 103.1748 0001618  89.4276  63.2679 15.84465510  2966
STARLINK-37055          
1 68147U 26049F   26083.25002315 -.01878753  00000+0 -93656-2 0  9995
2 68147  97.2796 103.1705 0001476  85.3813  58.0079 15.84612658  2963
STARLINK-36981          
1 68148U 26049G   26083.25002315 -.01985586  00000+0 -99559-2 0  9997
2 68148  97.2786 103.1778 0001510  79.0921  81.5911 15.84661360  2962
STARLINK-36992          
1 68149U 26049H   26083.25002315 -.01987488  00000+0 -98978-2 0  9995
2 68149  97.2784 103.1794 0001541  89.3638  75.1203 15.84805121  2960
STARLINK-37060          
1 68150U 26049J   26083.25002315 -.01986032  00000+0 -98236-2 0  9998
2 68150  97.2782 103.1813 0001574  80.9603  87.3229 15.84943154  2969
STARLINK-37073          
1 68151U 26049K   26083.25002315 -.01997101  00000+0 -98458-2 0  9994
2 68151  97.2780 103.1824 0001530  82.2630  90.0318 15.85029677  2963
STARLINK-37049          
1 68152U 26049L   26083.25002315 -.02010965  00000+0 -98986-2 0  9996
2 68152  97.2776 103.1845 0001515  93.7556  82.6708 15.85084609  2965
STARLINK-37072          
1 68153U 26049M   26083.25002315 -.02009155  00000+0 -98384-2 0  9998
2 68153  97.2771 103.1858 0001703  86.1786  94.1557 15.85186595  2962
STARLINK-36241          
1 68154U 26049N   26083.25002315 -.02022961  00000+0 -98430-2 0  9991
2 68154  97.2771 103.1888 0001620  91.1315  97.2417 15.85341436  2975
STARLINK-37048          
1 68155U 26049P   26083.25002315 -.02029966  00000+0 -97923-2 0  9990
2 68155  97.2761 103.1922 0001731  80.1006 116.1625 15.85528497  2967
STARLINK-36313          
1 68156U 26049Q   26083.25002315 -.02021121  00000+0 -97788-2 0  9995
2 68156  97.2765 103.1901 0001634  81.2664 110.9607 15.85454216  2973
STARLINK-37064          
1 68157U 26049R   26083.25002315 -.02022232  00000+0 -98894-2 0  9999
2 68157  97.2766 103.1865 0001447  87.0134  97.4569 15.85238336  2960
STARLINK-37069          
1 68158U 26049S   26083.25002315 -.02031164  00000+0 -96653-2 0  9995
2 68158  97.2760 103.1954 0001592  84.4520 119.2317 15.85812514  2965
STARLINK-37053          
1 68159U 26049T   26083.25002315 -.02031741  00000+0 -96228-2 0  9995
2 68159  97.2759 103.1968 0001512  91.3879 116.1860 15.85910684  2961
STARLINK-36306          
1 68160U 26049U   26083.25002315 -.02034927  00000+0 -95846-2 0  9991
2 68160  97.2752 103.1979 0001559  96.6918 114.6876 15.86028518  2979
STARLINK-37057          
1 68161U 26049V   26083.25002315 -.02035679  00000+0 -97601-2 0  9998
2 68161  97.2758 103.1935 0001738  90.9738 109.0567 15.85662946  2966
